{
  "norad_id": 62465,
  "name": "STARLINK-11178 [DTC]",
  "history": [
    {
      "epoch": "2026-03-28T11:30:01.949472Z",
      "apogee_km": 357.15609303588553,
      "perigee_km": 355.51746087647643,
      "latitude_deg": -4.891860711904894e-05,
      "longitude_deg": 111.56057881733983,
      "height_km": 356.0384023458829,
      "semi_major_axis_km": 6734.473776956181,
      "eccentricity": 0.00012166,
      "inclination_deg": 43.0006,
      "raan_deg": 109.9678,
      "arg_perigee_deg": 274.9532,
      "mean_anomaly_deg": 85.1196,
      "mean_motion_rev_day": 15.70895381
    }
  ]
}