{"fetched_at":"2026-03-29T02:12:04Z","count":15717,"tles":[{"name":"STARLINK-11178 [DTC]","line1":"1 62465U 24254D   26087.47918923  .00214013  00000+0  16250-2 0  9992","line2":"2 62465  43.0006 109.9678 0001216 274.9532  85.1196 15.70895381 72196","category":"Starlink"}]}